[{"OBJECT_NAME":"JINJUSAT-1B","OBJECT_ID":"2025-052A","EPOCH":"2026-03-09T15:55:38.242848","MEAN_MOTION":15.30194857,"ECCENTRICITY":0.00055504,"INCLINATION":97.4113,"RA_OF_ASC_NODE":325.4613,"ARG_OF_PERICENTER":82.193,"MEAN_ANOMALY":277.9941,"EPHEMERIS_TYPE":0,"CLASSIFICATION_TYPE":"U","NORAD_CAT_ID":63210,"ELEMENT_SET_NO":999,"REV_AT_EPOCH":5486,"BSTAR":0.00068430401,"MEAN_MOTION_DOT":0.00019955,"MEAN_MOTION_DDOT":0},{"OBJECT_NAME":"STARLINK-34367","OBJECT_ID":"2025-130Q","EPOCH":"2026-03-09T11:32:00.986208","MEAN_MOTION":15.30196054,"ECCENTRICITY":0.00012958,"INCLINATION":53.159,"RA_OF_ASC_NODE":89.3241,"ARG_OF_PERICENTER":77.8975,"MEAN_ANOMALY":282.2171,"EPHEMERIS_TYPE":0,"CLASSIFICATION_TYPE":"U","NORAD_CAT_ID":64452,"ELEMENT_SET_NO":999,"REV_AT_EPOCH":4066,"BSTAR":0.00074364522,"MEAN_MOTION_DOT":0.00021727,"MEAN_MOTION_DDOT":0}]
